STARLINK-3175           
1 51140U 22005AN  26068.85365034 -.00000661  00000+0 -23428-4 0  9993
2 51140  53.2171 298.3933 0001417  91.4644 268.6510 15.08836064228764
LEMUR-2-ESPERANZA       
1 63352U 25061B   26068.87489603  .00006090  00000+0  34973-3 0  9993
2 63352  97.5568  45.1407 0016949 244.8770 115.0702 15.12770807 52576
