[{"OBJECT_NAME":"STARLINK-3175","OBJECT_ID":"2022-005AN","EPOCH":"2026-03-09T20:29:15.389376","MEAN_MOTION":15.08836064,"ECCENTRICITY":0.0001417,"INCLINATION":53.2171,"RA_OF_ASC_NODE":298.3933,"ARG_OF_PERICENTER":91.4644,"MEAN_ANOMALY":268.651,"EPHEMERIS_TYPE":0,"CLASSIFICATION_TYPE":"U","NORAD_CAT_ID":51140,"ELEMENT_SET_NO":999,"REV_AT_EPOCH":22876,"BSTAR":-2.3427906e-5,"MEAN_MOTION_DOT":-6.61e-6,"MEAN_MOTION_DDOT":0},{"OBJECT_NAME":"LEMUR-2-ESPERANZA","OBJECT_ID":"2025-061B","EPOCH":"2026-03-09T20:59:51.017856","MEAN_MOTION":15.12770808,"ECCENTRICITY":0.00169494,"INCLINATION":97.5568,"RA_OF_ASC_NODE":45.1407,"ARG_OF_PERICENTER":244.877,"MEAN_ANOMALY":115.0702,"EPHEMERIS_TYPE":0,"CLASSIFICATION_TYPE":"U","NORAD_CAT_ID":63352,"ELEMENT_SET_NO":999,"REV_AT_EPOCH":5257,"BSTAR":0.00034972806,"MEAN_MOTION_DOT":6.09e-5,"MEAN_MOTION_DDOT":0}]
